[{"OBJECT_NAME":"USA 119","OBJECT_ID":"1996-029A","EPOCH":"2026-03-09T10:00:09.129312","MEAN_MOTION":13.45886981,"ECCENTRICITY":0.0846389,"INCLINATION":63.3196,"RA_OF_ASC_NODE":93.119,"ARG_OF_PERICENTER":47.6314,"MEAN_ANOMALY":319.3281,"EPHEMERIS_TYPE":0,"CLASSIFICATION_TYPE":"U","NORAD_CAT_ID":23893,"ELEMENT_SET_NO":999,"REV_AT_EPOCH":9184,"BSTAR":0.00029025737,"MEAN_MOTION_DOT":1.64e-5,"MEAN_MOTION_DDOT":0},{"OBJECT_NAME":"STARLINK-31989","OBJECT_ID":"2024-107Q","EPOCH":"2026-03-09T09:34:28.994016","MEAN_MOTION":15.30202679,"ECCENTRICITY":0.00011581,"INCLINATION":53.16,"RA_OF_ASC_NODE":66.7609,"ARG_OF_PERICENTER":87.5405,"MEAN_ANOMALY":272.5728,"EPHEMERIS_TYPE":0,"CLASSIFICATION_TYPE":"U","NORAD_CAT_ID":59959,"ELEMENT_SET_NO":999,"REV_AT_EPOCH":9975,"BSTAR":-2.2658157e-5,"MEAN_MOTION_DOT":-1.03e-5,"MEAN_MOTION_DDOT":0}]
